[{"OBJECT_NAME":"FLOCK 4Q-36","OBJECT_ID":"2023-174U","EPOCH":"2026-03-02T20:02:35.778048","MEAN_MOTION":15.50690459,"ECCENTRICITY":0.00076504,"INCLINATION":97.3904,"RA_OF_ASC_NODE":150.9225,"ARG_OF_PERICENTER":167.7672,"MEAN_ANOMALY":192.3767,"EPHEMERIS_TYPE":0,"CLASSIFICATION_TYPE":"U","NORAD_CAT_ID":58274,"ELEMENT_SET_NO":999,"REV_AT_EPOCH":12931,"BSTAR":0.00057156997,"MEAN_MOTION_DOT":0.0003285,"MEAN_MOTION_DDOT":0},{"OBJECT_NAME":"FLOCK 4Q-12","OBJECT_ID":"2023-174V","EPOCH":"2026-03-03T04:02:02.238144","MEAN_MOTION":15.50793872,"ECCENTRICITY":0.000612,"INCLINATION":97.3898,"RA_OF_ASC_NODE":151.147,"ARG_OF_PERICENTER":173.0332,"MEAN_ANOMALY":187.1006,"EPHEMERIS_TYPE":0,"CLASSIFICATION_TYPE":"U","NORAD_CAT_ID":58275,"ELEMENT_SET_NO":999,"REV_AT_EPOCH":12938,"BSTAR":0.0013186,"MEAN_MOTION_DOT":0.00076572,"MEAN_MOTION_DDOT":0},{"OBJECT_NAME":"FLOCK 4Q-28","OBJECT_ID":"2023-174AA","EPOCH":"2026-03-03T04:05:14.595648","MEAN_MOTION":15.4854092,"ECCENTRICITY":0.0007307,"INCLINATION":97.3924,"RA_OF_ASC_NODE":150.3976,"ARG_OF_PERICENTER":172.8399,"MEAN_ANOMALY":187.2957,"EPHEMERIS_TYPE":0,"CLASSIFICATION_TYPE":"U","NORAD_CAT_ID":58280,"ELEMENT_SET_NO":999,"REV_AT_EPOCH":12930,"BSTAR":0.00066878,"MEAN_MOTION_DOT":0.00035665,"MEAN_MOTION_DDOT":0},{"OBJECT_NAME":"FLOCK 4Q-27","OBJECT_ID":"2023-174AC","EPOCH":"2026-03-03T03:59:09.655008","MEAN_MOTION":15.48518345,"ECCENTRICITY":0.0006715,"INCLINATION":97.3865,"RA_OF_ASC_NODE":149.9381,"ARG_OF_PERICENTER":167.8909,"MEAN_ANOMALY":192.2504,"EPHEMERIS_TYPE":0,"CLASSIFICATION_TYPE":"U","NORAD_CAT_ID":58282,"ELEMENT_SET_NO":999,"REV_AT_EPOCH":12931,"BSTAR":0.00070779,"MEAN_MOTION_DOT":0.00037725,"MEAN_MOTION_DDOT":0},{"OBJECT_NAME":"FLOCK 4Q-26","OBJECT_ID":"2023-174AE","EPOCH":"2026-03-03T03:33:12.968064","MEAN_MOTION":15.50321359,"ECCENTRICITY":0.0007167,"INCLINATION":97.3917,"RA_OF_ASC_NODE":151.3315,"ARG_OF_PERICENTER":171.0121,"MEAN_ANOMALY":189.126,"EPHEMERIS_TYPE":0,"CLASSIFICATION_TYPE":"U","NORAD_CAT_ID":58284,"ELEMENT_SET_NO":999,"REV_AT_EPOCH":12936,"BSTAR":0.00068554,"MEAN_MOTION_DOT":0.00038932,"MEAN_MOTION_DDOT":0},{"OBJECT_NAME":"FLOCK 4Q-31","OBJECT_ID":"2023-174AF","EPOCH":"2026-03-03T04:15:14.166720","MEAN_MOTION":15.49817554,"ECCENTRICITY":0.000786,"INCLINATION":97.396,"RA_OF_ASC_NODE":151.0042,"ARG_OF_PERICENTER":173.0541,"MEAN_ANOMALY":187.0821,"EPHEMERIS_TYPE":0,"CLASSIFICATION_TYPE":"U","NORAD_CAT_ID":58285,"ELEMENT_SET_NO":999,"REV_AT_EPOCH":12932,"BSTAR":0.00077411,"MEAN_MOTION_DOT":0.00043233,"MEAN_MOTION_DDOT":0},{"OBJECT_NAME":"FLOCK 4Q-30","OBJECT_ID":"2023-174AG","EPOCH":"2026-03-03T03:59:15.309888","MEAN_MOTION":15.50045934,"ECCENTRICITY":0.0007685,"INCLINATION":97.3962,"RA_OF_ASC_NODE":151.1724,"ARG_OF_PERICENTER":168.1688,"MEAN_ANOMALY":191.9745,"EPHEMERIS_TYPE":0,"CLASSIFICATION_TYPE":"U","NORAD_CAT_ID":58286,"ELEMENT_SET_NO":999,"REV_AT_EPOCH":12933,"BSTAR":0.00079368,"MEAN_MOTION_DOT":0.00044692,"MEAN_MOTION_DDOT":0},{"OBJECT_NAME":"PELICAN-1","OBJECT_ID":"2023-174AS","EPOCH":"2026-03-02T18:54:49.518432","MEAN_MOTION":15.63306512,"ECCENTRICITY":0.0008834,"INCLINATION":97.4032,"RA_OF_ASC_NODE":156.2135,"ARG_OF_PERICENTER":253.4736,"MEAN_ANOMALY":106.5552,"EPHEMERIS_TYPE":0,"CLASSIFICATION_TYPE":"U","NORAD_CAT_ID":58296,"ELEMENT_SET_NO":999,"REV_AT_EPOCH":12948,"BSTAR":0.00045528,"MEAN_MOTION_DOT":0.00041868,"MEAN_MOTION_DDOT":0},{"OBJECT_NAME":"FLOCK 4Q-25","OBJECT_ID":"2023-174AZ","EPOCH":"2026-03-03T03:57:04.381056","MEAN_MOTION":15.55801868,"ECCENTRICITY":0.0005412,"INCLINATION":97.388,"RA_OF_ASC_NODE":152.0038,"ARG_OF_PERICENTER":155.9165,"MEAN_ANOMALY":204.2344,"EPHEMERIS_TYPE":0,"CLASSIFICATION_TYPE":"U","NORAD_CAT_ID":58303,"ELEMENT_SET_NO":999,"REV_AT_EPOCH":12945,"BSTAR":0.00081572,"MEAN_MOTION_DOT":0.00056557,"MEAN_MOTION_DDOT":0},{"OBJECT_NAME":"FLOCK 4Q-29","OBJECT_ID":"2023-174BA","EPOCH":"2026-03-03T04:34:48.678816","MEAN_MOTION":15.49009126,"ECCENTRICITY":0.0007964,"INCLINATION":97.3948,"RA_OF_ASC_NODE":150.8029,"ARG_OF_PERICENTER":160.9454,"MEAN_ANOMALY":199.2096,"EPHEMERIS_TYPE":0,"CLASSIFICATION_TYPE":"U","NORAD_CAT_ID":58304,"ELEMENT_SET_NO":999,"REV_AT_EPOCH":12931,"BSTAR":0.00072771,"MEAN_MOTION_DOT":0.00039482,"MEAN_MOTION_DDOT":0},{"OBJECT_NAME":"FLOCK 4Q-22","OBJECT_ID":"2023-174BC","EPOCH":"2026-03-03T03:53:16.724832","MEAN_MOTION":15.51550131,"ECCENTRICITY":0.0006859,"INCLINATION":97.3865,"RA_OF_ASC_NODE":150.9373,"ARG_OF_PERICENTER":164.3033,"MEAN_ANOMALY":195.8433,"EPHEMERIS_TYPE":0,"CLASSIFICATION_TYPE":"U","NORAD_CAT_ID":58306,"ELEMENT_SET_NO":999,"REV_AT_EPOCH":12938,"BSTAR":0.00074319,"MEAN_MOTION_DOT":0.00044119,"MEAN_MOTION_DDOT":0},{"OBJECT_NAME":"FLOCK 4Q-23","OBJECT_ID":"2023-174BD","EPOCH":"2026-03-03T04:42:47.690784","MEAN_MOTION":15.54619677,"ECCENTRICITY":0.0007082,"INCLINATION":97.3974,"RA_OF_ASC_NODE":152.4944,"ARG_OF_PERICENTER":161.6957,"MEAN_ANOMALY":198.4553,"EPHEMERIS_TYPE":0,"CLASSIFICATION_TYPE":"U","NORAD_CAT_ID":58307,"ELEMENT_SET_NO":999,"REV_AT_EPOCH":12942,"BSTAR":0.00079814,"MEAN_MOTION_DOT":0.00052992,"MEAN_MOTION_DDOT":0},{"OBJECT_NAME":"FLOCK 4Q-33","OBJECT_ID":"2023-174BE","EPOCH":"2026-03-03T05:01:00.045984","MEAN_MOTION":15.50670844,"ECCENTRICITY":0.0007469,"INCLINATION":97.3891,"RA_OF_ASC_NODE":150.9276,"ARG_OF_PERICENTER":154.861,"MEAN_ANOMALY":205.3007,"EPHEMERIS_TYPE":0,"CLASSIFICATION_TYPE":"U","NORAD_CAT_ID":58308,"ELEMENT_SET_NO":999,"REV_AT_EPOCH":12937,"BSTAR":0.00067262,"MEAN_MOTION_DOT":0.00038674,"MEAN_MOTION_DDOT":0},{"OBJECT_NAME":"FLOCK 4Q-35","OBJECT_ID":"2023-174BF","EPOCH":"2026-03-03T04:35:55.245696","MEAN_MOTION":15.49653334,"ECCENTRICITY":0.0008292,"INCLINATION":97.3912,"RA_OF_ASC_NODE":151.0836,"ARG_OF_PERICENTER":167.7565,"MEAN_ANOMALY":192.3889,"EPHEMERIS_TYPE":0,"CLASSIFICATION_TYPE":"U","NORAD_CAT_ID":58309,"ELEMENT_SET_NO":999,"REV_AT_EPOCH":12935,"BSTAR":0.00071432,"MEAN_MOTION_DOT":0.00039644,"MEAN_MOTION_DDOT":0},{"OBJECT_NAME":"FLOCK 4Q-34","OBJECT_ID":"2023-174BN","EPOCH":"2026-03-03T04:59:56.832288","MEAN_MOTION":15.54800011,"ECCENTRICITY":0.0006938,"INCLINATION":97.3868,"RA_OF_ASC_NODE":151.912,"ARG_OF_PERICENTER":162.575,"MEAN_ANOMALY":197.5743,"EPHEMERIS_TYPE":0,"CLASSIFICATION_TYPE":"U","NORAD_CAT_ID":58316,"ELEMENT_SET_NO":999,"REV_AT_EPOCH":12943,"BSTAR":0.00078833,"MEAN_MOTION_DOT":0.00052681,"MEAN_MOTION_DDOT":0},{"OBJECT_NAME":"FLOCK 4Q-7","OBJECT_ID":"2023-174BQ","EPOCH":"2026-03-03T03:48:54.247680","MEAN_MOTION":15.48678482,"ECCENTRICITY":0.0008165,"INCLINATION":97.3945,"RA_OF_ASC_NODE":150.5817,"ARG_OF_PERICENTER":159.6143,"MEAN_ANOMALY":200.5435,"EPHEMERIS_TYPE":0,"CLASSIFICATION_TYPE":"U","NORAD_CAT_ID":58318,"ELEMENT_SET_NO":999,"REV_AT_EPOCH":12930,"BSTAR":0.00073591,"MEAN_MOTION_DOT":0.00039472,"MEAN_MOTION_DDOT":0}]
