FLOCK 4Q-36             
1 58274U 23174U   26061.83513632  .00032850  00000+0  57157-3 0  9994
2 58274  97.3904 150.9225 0007650 167.7672 192.3767 15.50690459129313
FLOCK 4Q-12             
1 58275U 23174V   26062.16808146  .00076572  00000+0  13186-2 0  9991
2 58275  97.3898 151.1470 0006120 173.0332 187.1006 15.50793872129383
FLOCK 4Q-28             
1 58280U 23174AA  26062.17030782  .00035665  00000+0  66878-3 0  9996
2 58280  97.3924 150.3976 0007307 172.8399 187.2957 15.48540920129308
FLOCK 4Q-27             
1 58282U 23174AC  26062.16608397  .00037725  00000+0  70779-3 0  9994
2 58282  97.3865 149.9381 0006715 167.8909 192.2504 15.48518345129312
FLOCK 4Q-26             
1 58284U 23174AE  26062.14806676  .00038932  00000+0  68554-3 0  9993
2 58284  97.3917 151.3315 0007167 171.0121 189.1260 15.50321359129360
FLOCK 4Q-31             
1 58285U 23174AF  26062.17724730  .00043233  00000+0  77411-3 0  9999
2 58285  97.3960 151.0042 0007860 173.0541 187.0821 15.49817554129322
FLOCK 4Q-30             
1 58286U 23174AG  26062.16614942  .00044692  00000+0  79368-3 0  9995
2 58286  97.3962 151.1724 0007685 168.1688 191.9745 15.50045934129332
PELICAN-1               
1 58296U 23174AS  26061.78807313  .00041868  00000+0  45528-3 0  9992
2 58296  97.4032 156.2135 0008834 253.4736 106.5552 15.63306512129483
FLOCK 4Q-25             
1 58303U 23174AZ  26062.16463404  .00056557  00000+0  81572-3 0  9993
2 58303  97.3880 152.0038 0005412 155.9165 204.2344 15.55801868129456
FLOCK 4Q-29             
1 58304U 23174BA  26062.19084119  .00039482  00000+0  72771-3 0  9998
2 58304  97.3948 150.8029 0007964 160.9454 199.2096 15.49009126129311
FLOCK 4Q-22             
1 58306U 23174BC  26062.16199913  .00044119  00000+0  74319-3 0  9999
2 58306  97.3865 150.9373 0006859 164.3033 195.8433 15.51550131129381
FLOCK 4Q-23             
1 58307U 23174BD  26062.19638531  .00052992  00000+0  79814-3 0  9990
2 58307  97.3974 152.4944 0007082 161.6957 198.4553 15.54619677129429
FLOCK 4Q-33             
1 58308U 23174BE  26062.20902831  .00038674  00000+0  67262-3 0  9995
2 58308  97.3891 150.9276 0007469 154.8610 205.3007 15.50670844129373
FLOCK 4Q-35             
1 58309U 23174BF  26062.19161164  .00039644  00000+0  71432-3 0  9992
2 58309  97.3912 151.0836 0008292 167.7565 192.3889 15.49653334129353
FLOCK 4Q-34             
1 58316U 23174BN  26062.20829667  .00052681  00000+0  78833-3 0  9999
2 58316  97.3868 151.9120 0006938 162.5750 197.5743 15.54800011129437
FLOCK 4Q-7              
1 58318U 23174BQ  26062.15896120  .00039472  00000+0  73591-3 0  9992
2 58318  97.3945 150.5817 0008165 159.6143 200.5435 15.48678482129307
